#aV2007  2 13  0  0   .00000000      96 DD+AD WGS84 FIT  NGA
## 1414 172800.00000000   900.00000000 54144  .0000000000000
+   30     1  2  3  4  5  6  7  8  9 10 11 12 13 14 16 17 18
+         19 20 21 22 23 24 25 26 27 28 29 30 31  0  0  0  0
+          0  0  0  0  0  0  0  0  0  0  0  0  0  0  0  0  0
+          0  0  0  0  0  0  0  0  0  0  0  0  0  0  0  0  0
+          0  0  0  0  0  0  0  0  0  0  0  0  0  0  0  0  0
++         0  0  0  0  0  0  0  0  0  0  0  0  0  0  0  0  0
++         0  0  0  0  0  0  0  0  0  0  0  0  0  0  0  0  0
++         0  0  0  0  0  0  0  0  0  0  0  0  0  0  0  0  0
++         0  0  0  0  0  0  0  0  0  0  0  0  0  0  0  0  0
++         0  0  0  0  0  0  0  0  0  0  0  0  0  0  0  0  0
%c cc cc ccc ccc cccc cccc cccc cccc ccccc ccccc ccccc ccccc
%c cc cc ccc ccc cccc cccc cccc cccc ccccc ccccc ccccc ccccc
%f  0.0000000  0.000000000  0.00000000000  0.000000000000000
%f  0.0000000  0.000000000  0.00000000000  0.000000000000000
%i    0    0    0    0      0      0      0      0         0
%i    0    0    0    0      0      0      0      0         0
/*      NGA, ST. LOUIS,MO.                                  
/*   EPHEMERIS COMPUTED FROM  3 DAYS OF DATA                
/* CCCCCCCCCCCCCCCCCCCCCCCCCCCCCCCCCCCCCCCCCCCCCCCCCCCCCCCCC
/* CCCCCCCCCCCCCCCCCCCCCCCCCCCCCCCCCCCCCCCCCCCCCCCCCCCCCCCCC
*  2007  2 13  4 15   .00000000                                                 
P  1  -2500.689678 -14466.507480  22342.107856    107.457241                    
V  1  27239.509827  -5450.021786   -542.086718       .023645                    
P  2  11826.307648  21871.864890   9460.175560     81.886697                    
V  2 -10568.197539  -6853.212722  28101.581386       .033443                    
P  3  -7620.306094 -14278.937547 -21282.480101     12.933591                    
V  3  25071.236372  -9110.449639  -2562.158752       .059907                    
P  4  -1687.871244  18243.344216  19037.818191      3.590006                    
V  4 -18004.741228 -16670.497468  14690.892832       .019952                    
P  5  15020.701713   4201.792458  21275.150520     34.365392                    
V  5  -5407.884400  27094.187722  -1367.482521       .067352                    
P  6  25871.799285  -5795.047759   2175.074255     24.520632                    
V  6  -1446.897412   4176.339938  30941.991305       .265243                    
P  7  25152.839266  -8597.210441   -807.305056    417.364949                    
V  7   2435.983103   2972.001206  31097.568023      -.121877                    
P  8 -10619.456488  10503.330422 -22069.148189    -96.535215                    
V  8 -18545.238882 -20582.597641  -1300.514483      -.013317                    
P  9  21168.362425  15111.393844   5379.293790     57.381359                    
V  9   3686.271477   7031.235155 -30698.691088       .016135                    
P 10   3767.106054  21702.846761 -14703.060725     97.386079                    
V 10  -7488.598620  17146.182157  23876.112212       .005966                    
P 11 -23455.628274 -10908.097577   6544.815258      7.024959                    
V 11  -4162.939577  -8594.648816 -28499.626958       .012457                    
P 12  14023.215183   6259.218964  21780.935290    -51.417468                    
V 12  -7659.110441  26302.938399  -2598.626194       .036778                    
P 13 -25655.766843   6604.074990  -1592.032197    142.997502                    
V 13  -2240.996638  -1351.651391  32417.818193       .040520                    
P 14  14651.359885 -14662.156217  16653.112000      8.028768                    
V 14  20709.524620  -3449.315933 -21427.846222       .013814                    
P 16    926.837869 -24870.272830  -9001.707523    121.788035                    
V 16   5829.611796 -10345.952078  29046.015264       .036245                    
P 17 -14927.269127  15108.773281  15870.923305     78.970589                    
V 17 -20108.918169   2844.591989 -21735.566999      -.013580                    
P 18  16096.823564 -14260.817403 -15243.220565   -253.716780                    
V 18  -3957.637817  19481.002274 -22527.736531       .001778                    
P 19 -17002.763933  -9686.137388 -17909.359207      4.265652                    
V 19  22233.820416  -5736.818549 -17813.489960       .041531                    
P 20 -14814.713591  -3861.531647  21605.919211    -22.344169                    
V 20   7268.572369 -26719.110894    251.443472      -.001704                    
P 21  16307.144671  -4313.720511 -20528.985299     71.141038                    
V 21  17049.563725  19971.023625   8745.873858       .009851                    
P 22  11744.253484 -23220.351161  -5120.871825    167.256152                    
V 22    714.314008   7329.490999 -30680.926503       .019508                    
P 23 -24929.336422   -360.424462   9351.700440    149.790280                    
V 23  11035.694944  -4986.009275  28790.591572       .016573                    
P 24  20634.856885  13145.854291  -9810.781661     76.928868                    
V 24   6244.691730  11562.415333  28379.139790       .031825                    
P 25 -11953.767526 -20884.141002  11503.218436    347.844027                    
V 25  12290.660983   7250.507914  27013.653174      -.165561                    
P 26  15741.606921   9756.455465 -19675.556719    -40.667605                    
V 26 -23179.045160   5499.832800 -15605.989752      -.184906                    
P 27 -17287.939605   2548.846140 -19442.279376     93.854963                    
V 27 -18397.389153 -18426.977910  13245.205572       .020654                    
P 28 -13010.173240  21023.293986  -8892.726336      7.471261                    
V 28    736.345648 -12174.527568 -29177.138961      -.007605                    
P 29  11421.767207  11353.817662 -20971.279260    347.599475                    
V 29 -26046.466060   7093.490226  -9898.843595       .104396                    
P 30  16209.778229  -7037.566695  19491.808310     25.276246                    
V 30  -4681.495356  25103.663152  12869.742460       .010405                    
P 31  -1232.207170 -19475.224819  18194.019868      7.597063                    
V 31  16965.533512  15186.514553  17654.819677       .038870                    
EOF
